STARLINK-1559           
1 46077U 20055BC  26068.23360559  .00042685  00000+0  14779-2 0  9995
2 46077  53.0254  76.0659 0004229  33.9710 326.1559 15.29461733309518
STARLINK-31518          
1 59219U 24046U   26068.50610553  .00000405  00000+0  25793-4 0  9997
2 59219  53.1600 156.0298 0001237  97.9382 262.1760 15.30188263113012
