[{"OBJECT_NAME":"STARLINK-1559","OBJECT_ID":"2020-055BC","EPOCH":"2026-03-09T05:36:23.522976","MEAN_MOTION":15.29461733,"ECCENTRICITY":0.0004229,"INCLINATION":53.0254,"RA_OF_ASC_NODE":76.0659,"ARG_OF_PERICENTER":33.971,"MEAN_ANOMALY":326.1559,"EPHEMERIS_TYPE":0,"CLASSIFICATION_TYPE":"U","NORAD_CAT_ID":46077,"ELEMENT_SET_NO":999,"REV_AT_EPOCH":30951,"BSTAR":0.0014778793,"MEAN_MOTION_DOT":0.00042685,"MEAN_MOTION_DDOT":0},{"OBJECT_NAME":"STARLINK-31518","OBJECT_ID":"2024-046U","EPOCH":"2026-03-09T12:08:47.517792","MEAN_MOTION":15.30188263,"ECCENTRICITY":0.00012374,"INCLINATION":53.16,"RA_OF_ASC_NODE":156.0298,"ARG_OF_PERICENTER":97.9382,"MEAN_ANOMALY":262.176,"EPHEMERIS_TYPE":0,"CLASSIFICATION_TYPE":"U","NORAD_CAT_ID":59219,"ELEMENT_SET_NO":999,"REV_AT_EPOCH":11301,"BSTAR":2.5793471e-5,"MEAN_MOTION_DOT":4.05e-6,"MEAN_MOTION_DDOT":0}]
